{"type": "FeatureCollection", "features": [ {"type": "Feature", "properties": {"norad_id": 66906, "name": "1998-067XS", "group": "last-30-days", "lat": -15.682021255953506, "lon": 110.13508817317746, "alt_km": 418.10087186475266, "timestamp": "2025-12-16T15:45:49.734414+00:00", "meta": {"OBJECT_NAME": "1998-067XS", "OBJECT_ID": "1998-067XS", "EPOCH": "2025-12-15T16:39:04.886784", "MEAN_MOTION": 15.50732342, "ECCENTRICITY": 0.00032898, "INCLINATION": 51.6303, "RA_OF_ASC_NODE": 127.7667, "ARG_OF_PERICENTER": 216.5725, "MEAN_ANOMALY": 143.504, "EPHEMERIS_TYPE": 0, "CLASSIFICATION_TYPE": "U", "NORAD_CAT_ID": 66906, "ELEMENT_SET_NO": 999, "REV_AT_EPOCH": 207, "BSTAR": 0.00035286566, "MEAN_MOTION_DOT": 0.00020263, "MEAN_MOTION_DDOT": 0}, "tle": {"line1": "1 66906U 98067XS  25349.69380656  .00020263  00000+0  35287-3 0  9993", "line2": "2 66906  51.6303 127.7667 0003289 216.5725 143.5040 15.50732342  2071"}}, "geometry": {"type": "Point", "coordinates": [110.13508817317746, -15.682021255953506]}}, {"type": "Feature", "properties": {"norad_id": 66907, "name": "1998-067XT", "group": "last-30-days", "lat": 7.533619246168832, "lon": 128.93958164067533, "alt_km": 412.2856418094325, "timestamp": "2025-12-16T15:45:49.734426+00:00", "meta": {"OBJECT_NAME": "1998-067XT", "OBJECT_ID": "1998-067XT", "EPOCH": "2025-12-15T19:37:52.461984", "MEAN_MOTION": 15.51845045, "ECCENTRICITY": 0.00041213, "INCLINATION": 51.6296, "RA_OF_ASC_NODE": 127.0953, "ARG_OF_PERICENTER": 244.2963, "MEAN_ANOMALY": 115.7601, "EPHEMERIS_TYPE": 0, "CLASSIFICATION_TYPE": "U", "NORAD_CAT_ID": 66907, "ELEMENT_SET_NO": 999, "REV_AT_EPOCH": 209, "BSTAR": 0.00082636885, "MEAN_MOTION_DOT": 0.0005023, "MEAN_MOTION_DDOT": 0}, "tle": {"line1": "1 66907U 98067XT  25349.81796831  .00050230  00000+0  82637-3 0  9992", "line2": "2 66907  51.6296 127.0953 0004121 244.2963 115.7601 15.51845045  2094"}}, "geometry": {"type": "Point", "coordinates": [128.93958164067533, 7.533619246168832]}}, {"type": "Feature", "properties": {"norad_id": 66908, "name": "1998-067XU", "group": "last-30-days", "lat": 9.94201037201976, "lon": 130.90110119329654, "alt_km": 411.8677899328741, "timestamp": "2025-12-16T15:45:49.734436+00:00", "meta": {"OBJECT_NAME": "1998-067XU", "OBJECT_ID": "1998-067XU", "EPOCH": "2025-12-15T18:04:25.292064", "MEAN_MOTION": 15.51929885, "ECCENTRICITY": 0.00042378, "INCLINATION": 51.6291, "RA_OF_ASC_NODE": 127.4116, "ARG_OF_PERICENTER": 243.4196, "MEAN_ANOMALY": 116.636, "EPHEMERIS_TYPE": 0, "CLASSIFICATION_TYPE": "U", "NORAD_CAT_ID": 66908, "ELEMENT_SET_NO": 999, "REV_AT_EPOCH": 208, "BSTAR": 0.00081150303, "MEAN_MOTION_DOT": 0.00049466, "MEAN_MOTION_DDOT": 0}, "tle": {"line1": "1 66908U 98067XU  25349.75307051  .00049466  00000+0  81150-3 0  9996", "line2": "2 66908  51.6291 127.4116 0004237 243.4196 116.6360 15.51929885  2088"}}, "geometry": {"type": "Point", "coordinates": [130.90110119329654, 9.94201037201976]}}, {"type": "Feature", "properties": {"norad_id": 66909, "name": "SILVERSAT", "group": "last-30-days", "lat": 12.788414600324524, "lon": 133.27078077659243, "alt_km": 411.11205385833364, "timestamp": "2025-12-16T15:45:49.734448+00:00", "meta": {"OBJECT_NAME": "SILVERSAT", "OBJECT_ID": "1998-067XV", "EPOCH": "2025-12-15T14:58:08.164704", "MEAN_MOTION": 15.52037636, "ECCENTRICITY": 0.00041166, "INCLINATION": 51.6296, "RA_OF_ASC_NODE": 128.048, "ARG_OF_PERICENTER": 244.867, "MEAN_ANOMALY": 115.1892, "EPHEMERIS_TYPE": 0, "CLASSIFICATION_TYPE": "U", "NORAD_CAT_ID": 66909, "ELEMENT_SET_NO": 999, "REV_AT_EPOCH": 206, "BSTAR": 0.00079995468, "MEAN_MOTION_DOT": 0.00048941, "MEAN_MOTION_DDOT": 0}, "tle": {"line1": "1 66909U 98067XV  25349.62370561  .00048941  00000+0  79995-3 0  9990", "line2": "2 66909  51.6296 128.0480 0004116 244.8670 115.1892 15.52037636  2060"}}, "geometry": {"type": "Point", "coordinates": [133.27078077659243, 12.788414600324524]}}, {"type": "Feature", "properties": {"norad_id": 66910, "name": "1998-067XW", "group": "last-30-days", "lat": 20.129542589558092, "lon": 139.77322692237786, "alt_km": 411.08010078183634, "timestamp": "2025-12-16T15:45:49.734459+00:00", "meta": {"OBJECT_NAME": "1998-067XW", "OBJECT_ID": "1998-067XW", "EPOCH": "2025-12-15T16:28:26.170464", "MEAN_MOTION": 15.52120253, "ECCENTRICITY": 0.00047674, "INCLINATION": 51.6293, "RA_OF_ASC_NODE": 127.717, "ARG_OF_PERICENTER": 223.5527, "MEAN_ANOMALY": 136.5086, "EPHEMERIS_TYPE": 0, "CLASSIFICATION_TYPE": "U", "NORAD_CAT_ID": 66910, "ELEMENT_SET_NO": 999, "REV_AT_EPOCH": 207, "BSTAR": 0.00072313444, "MEAN_MOTION_DOT": 0.00044307, "MEAN_MOTION_DDOT": 0}, "tle": {"line1": "1 66910U 98067XW  25349.68641401  .00044307  00000+0  72313-3 0  9991", "line2": "2 66910  51.6293 127.7170 0004767 223.5527 136.5086 15.52120253  2079"}}, "geometry": {"type": "Point", "coordinates": [139.77322692237786, 20.129542589558092]}}, {"type": "Feature", "properties": {"norad_id": 66911, "name": "1998-067XX", "group": "last-30-days", "lat": 26.241174463961006, "lon": 145.8634508852933, "alt_km": 408.9896615745711, "timestamp": "2025-12-16T15:45:49.734468+00:00", "meta": {"OBJECT_NAME": "1998-067XX", "OBJECT_ID": "1998-067XX", "EPOCH": "2025-12-15T13:21:12.839040", "MEAN_MOTION": 15.52435494, "ECCENTRICITY": 0.00044725, "INCLINATION": 51.6293, "RA_OF_ASC_NODE": 128.3487, "ARG_OF_PERICENTER": 225.8375, "MEAN_ANOMALY": 134.2248, "EPHEMERIS_TYPE": 0, "CLASSIFICATION_TYPE": "U", "NORAD_CAT_ID": 66911, "ELEMENT_SET_NO": 999, "REV_AT_EPOCH": 204, "BSTAR": 0.00085850941, "MEAN_MOTION_DOT": 0.00053353, "MEAN_MOTION_DDOT": 0}, "tle": {"line1": "1 66911U 98067XX  25349.55639860  .00053353  00000+0  85851-3 0  9996", "line2": "2 66911  51.6293 128.3487 0004472 225.8375 134.2248 15.52435494  2045"}}, "geometry": {"type": "Point", "coordinates": [145.8634508852933, 26.241174463961006]}}, {"type": "Feature", "properties": {"norad_id": 66912, "name": "1998-067XY", "group": "last-30-days", "lat": -0.7652096910167802, "lon": 122.34013440704595, "alt_km": 414.44546601780803, "timestamp": "2025-12-16T15:45:49.734478+00:00", "meta": {"OBJECT_NAME": "1998-067XY", "OBJECT_ID": "1998-067XY", "EPOCH": "2025-12-15T15:02:01.063680", "MEAN_MOTION": 15.51430232, "ECCENTRICITY": 0.00042771, "INCLINATION": 51.6298, "RA_OF_ASC_NODE": 128.066, "ARG_OF_PERICENTER": 239.2298, "MEAN_ANOMALY": 120.827, "EPHEMERIS_TYPE": 0, "CLASSIFICATION_TYPE": "U", "NORAD_CAT_ID": 66912, "ELEMENT_SET_NO": 999, "REV_AT_EPOCH": 205, "BSTAR": 0.00059034446, "MEAN_MOTION_DOT": 0.00035151, "MEAN_MOTION_DDOT": 0}, "tle": {"line1": "1 66912U 98067XY  25349.62640120  .00035151  00000+0  59034-3 0  9996", "line2": "2 66912  51.6298 128.0660 0004277 239.2298 120.8270 15.51430232  2058"}}, "geometry": {"type": "Point", "coordinates": [122.34013440704595, -0.7652096910167802]}}, {"type": "Feature", "properties": {"norad_id": 66913, "name": "2025-284A", "group": "last-30-days", "lat": -46.948192712481465, "lon": -44.76689868499748, "alt_km": 508.85437189276945, "timestamp": "2025-12-16T15:45:49.734488+00:00", "meta": {"OBJECT_NAME": "2025-284A", "OBJECT_ID": "2025-284A", "EPOCH": "2025-12-15T07:08:46.902048", "MEAN_MOTION": 15.19018708, "ECCENTRICITY": 0.00119938, "INCLINATION": 80.4038, "RA_OF_ASC_NODE": 126.522, "ARG_OF_PERICENTER": 195.987, "MEAN_ANOMALY": 164.0981, "EPHEMERIS_TYPE": 0, "CLASSIFICATION_TYPE": "U", "NORAD_CAT_ID": 66913, "ELEMENT_SET_NO": 999, "REV_AT_EPOCH": 151, "BSTAR": 0.00035654166, "MEAN_MOTION_DOT": 7.498e-05, "MEAN_MOTION_DDOT": 0}, "tle": {"line1": "1 66913U 25284A   25349.29776507  .00007498  00000+0  35654-3 0  9995", "line2": "2 66913  80.4038 126.5220 0011993 195.9870 164.0981 15.19018708  1516"}}, "geometry": {"type": "Point", "coordinates": [-44.76689868499748, -46.948192712481465]}}, {"type": "Feature", "properties": {"norad_id": 66914, "name": "2025-284B", "group": "last-30-days", "lat": -48.26057835646266, "lon": -44.26900231384289, "alt_km": 510.08210580610375, "timestamp": "2025-12-16T15:45:49.734498+00:00", "meta": {"OBJECT_NAME": "2025-284B", "OBJECT_ID": "2025-284B", "EPOCH": "2025-12-15T22:56:54.258720", "MEAN_MOTION": 15.18980224, "ECCENTRICITY": 0.00082027, "INCLINATION": 80.4046, "RA_OF_ASC_NODE": 125.6889, "ARG_OF_PERICENTER": 236.1438, "MEAN_ANOMALY": 123.901, "EPHEMERIS_TYPE": 0, "CLASSIFICATION_TYPE": "U", "NORAD_CAT_ID": 66914, "ELEMENT_SET_NO": 999, "REV_AT_EPOCH": 161, "BSTAR": 0.00036716852, "MEAN_MOTION_DOT": 7.704e-05, "MEAN_MOTION_DDOT": 0}, "tle": {"line1": "1 66914U 25284B   25349.95618355  .00007704  00000+0  36717-3 0  9996", "line2": "2 66914  80.4046 125.6889 0008202 236.1438 123.9010 15.18980224  1612"}}, "geometry": {"type": "Point", "coordinates": [-44.26900231384289, -48.26057835646266]}}, {"type": "Feature", "properties": {"norad_id": 66915, "name": "HULIANWANG DIGUI-105", "group": "last-30-days", "lat": -11.658988186769516, "lon": -68.70413294170156, "alt_km": 883.9258674500725, "timestamp": "2025-12-16T15:45:49.734509+00:00", "meta": {"OBJECT_NAME": "HULIANWANG DIGUI-105", "OBJECT_ID": "2025-285A", "EPOCH": "2025-12-15T23:27:34.077600", "MEAN_MOTION": 14.03716395, "ECCENTRICITY": 0.00079541, "INCLINATION": 50.0044, "RA_OF_ASC_NODE": 104.0878, "ARG_OF_PERICENTER": 293.548, "MEAN_ANOMALY": 66.4588, "EPHEMERIS_TYPE": 0, "CLASSIFICATION_TYPE": "U", "NORAD_CAT_ID": 66915, "ELEMENT_SET_NO": 999, "REV_AT_EPOCH": 136, "BSTAR": 0.00019732887, "MEAN_MOTION_DOT": 1.61e-06, "MEAN_MOTION_DDOT": 0}, "tle": {"line1": "1 66915U 25285A   25349.97747775  .00000161  00000+0  19733-3 0  9998", "line2": "2 66915  50.0044 104.0878 0007954 293.5480  66.4588 14.03716395  1362"}}, "geometry": {"type": "Point", "coordinates": [-68.70413294170156, -11.658988186769516]}}]}